[{"OBJECT_NAME":"STARLINK-4476","OBJECT_ID":"2022-097AH","EPOCH":"2026-03-09T10:03:13.658112","MEAN_MOTION":15.08837462,"ECCENTRICITY":0.0001301,"INCLINATION":53.217,"RA_OF_ASC_NODE":115.334,"ARG_OF_PERICENTER":91.7857,"MEAN_ANOMALY":268.3285,"EPHEMERIS_TYPE":0,"CLASSIFICATION_TYPE":"U","NORAD_CAT_ID":53419,"ELEMENT_SET_NO":999,"REV_AT_EPOCH":19858,"BSTAR":-2.1772606e-5,"MEAN_MOTION_DOT":-6.34e-6,"MEAN_MOTION_DDOT":0},{"OBJECT_NAME":"SCOUT X-4 DEB","OBJECT_ID":"1963-053J","EPOCH":"2026-03-09T16:55:00.113088","MEAN_MOTION":14.81958963,"ECCENTRICITY":0.01635672,"INCLINATION":78.5671,"RA_OF_ASC_NODE":172.6466,"ARG_OF_PERICENTER":287.7652,"MEAN_ANOMALY":70.5757,"EPHEMERIS_TYPE":0,"CLASSIFICATION_TYPE":"U","NORAD_CAT_ID":3750,"ELEMENT_SET_NO":999,"REV_AT_EPOCH":79379,"BSTAR":0.0036900022,"MEAN_MOTION_DOT":0.00037093,"MEAN_MOTION_DDOT":0}]
